CCSDS_OMM_VERS = 2.0
CREATION_DATE  = 
ORIGINATOR     = 

OBJECT_NAME    = COSMOS 2550
OBJECT_ID      = 2021-056A
CENTER_NAME    = EARTH
REF_FRAME      = TEME
TIME_SYSTEM    = UTC
MEAN_ELEMENT_THEORY = SGP/SGP4

EPOCH          = 2025-10-30T18:06:08.236800
MEAN_MOTION    = 15.33832526
ECCENTRICITY   = .0008403
INCLINATION    = 67.1406
RA_OF_ASC_NODE = 74.0113
ARG_OF_PERICENTER = 269.9185
MEAN_ANOMALY   = 90.1007

EPHEMERIS_TYPE = 0
CLASSIFICATION_TYPE = U
NORAD_CAT_ID   = 48865
ELEMENT_SET_NO = 999
REV_AT_EPOCH   = 24353
BSTAR          = .28247E-4
MEAN_MOTION_DOT = .738E-5
MEAN_MOTION_DDOT = 0

CCSDS_OMM_VERS = 2.0
CREATION_DATE  = 
ORIGINATOR     = 

OBJECT_NAME    = CZ-2C R/B
OBJECT_ID      = 2022-058K
CENTER_NAME    = EARTH
REF_FRAME      = TEME
TIME_SYSTEM    = UTC
MEAN_ELEMENT_THEORY = SGP/SGP4

EPOCH          = 2025-10-30T01:51:10.077408
MEAN_MOTION    = 15.45469246
ECCENTRICITY   = .00506936
INCLINATION    = 50.1914
RA_OF_ASC_NODE = 265.7122
ARG_OF_PERICENTER = 16.3935
MEAN_ANOMALY   = 343.8657

EPHEMERIS_TYPE = 0
CLASSIFICATION_TYPE = U
NORAD_CAT_ID   = 52794
ELEMENT_SET_NO = 999
REV_AT_EPOCH   = 18987
BSTAR          = .65688982E-3
MEAN_MOTION_DOT = .33352E-3
MEAN_MOTION_DDOT = 0

CCSDS_OMM_VERS = 2.0
CREATION_DATE  = 
ORIGINATOR     = 

OBJECT_NAME    = GSLV R/B
OBJECT_ID      = 2022-138AN
CENTER_NAME    = EARTH
REF_FRAME      = TEME
TIME_SYSTEM    = UTC
MEAN_ELEMENT_THEORY = SGP/SGP4

EPOCH          = 2025-10-30T05:48:42.548832
MEAN_MOTION    = 14.95767940
ECCENTRICITY   = .00189828
INCLINATION    = 87.3854
RA_OF_ASC_NODE = 210.0284
ARG_OF_PERICENTER = 265.9491
MEAN_ANOMALY   = 93.9570

EPHEMERIS_TYPE = 0
CLASSIFICATION_TYPE = U
NORAD_CAT_ID   = 54149
ELEMENT_SET_NO = 999
REV_AT_EPOCH   = 16442
BSTAR          = .3955549E-3
MEAN_MOTION_DOT = .4451E-4
MEAN_MOTION_DDOT = 0

CCSDS_OMM_VERS = 2.0
CREATION_DATE  = 
ORIGINATOR     = 

OBJECT_NAME    = XRISM
OBJECT_ID      = 2023-137A
CENTER_NAME    = EARTH
REF_FRAME      = TEME
TIME_SYSTEM    = UTC
MEAN_ELEMENT_THEORY = SGP/SGP4

EPOCH          = 2025-10-30T00:12:15.022080
MEAN_MOTION    = 15.09650225
ECCENTRICITY   = .00082117
INCLINATION    = 31.0030
RA_OF_ASC_NODE = 47.7483
ARG_OF_PERICENTER = 164.1259
MEAN_ANOMALY   = 195.9638

EPHEMERIS_TYPE = 0
CLASSIFICATION_TYPE = U
NORAD_CAT_ID   = 57800
ELEMENT_SET_NO = 999
REV_AT_EPOCH   = 11801
BSTAR          = .5240975E-3
MEAN_MOTION_DOT = .8746E-4
MEAN_MOTION_DDOT = 0

CCSDS_OMM_VERS = 2.0
CREATION_DATE  = 
ORIGINATOR     = 

OBJECT_NAME    = ACS3
OBJECT_ID      = 2024-077B
CENTER_NAME    = EARTH
REF_FRAME      = TEME
TIME_SYSTEM    = UTC
MEAN_ELEMENT_THEORY = SGP/SGP4

EPOCH          = 2025-10-30T03:54:12.444192
MEAN_MOTION    = 13.82885479
ECCENTRICITY   = .00317189
INCLINATION    = 97.3396
RA_OF_ASC_NODE = 268.4105
ARG_OF_PERICENTER = 30.6767
MEAN_ANOMALY   = 329.6239

EPHEMERIS_TYPE = 0
CLASSIFICATION_TYPE = U
NORAD_CAT_ID   = 59588
ELEMENT_SET_NO = 999
REV_AT_EPOCH   = 7611
BSTAR          = .18513135E-1
MEAN_MOTION_DOT = .20286E-3
MEAN_MOTION_DDOT = 0

